[{"OBJECT_NAME":"STARLINK-1513","OBJECT_ID":"2020-038BJ","EPOCH":"2026-03-09T15:00:15.367104","MEAN_MOTION":15.30234927,"ECCENTRICITY":9.51e-5,"INCLINATION":53.1601,"RA_OF_ASC_NODE":191.4505,"ARG_OF_PERICENTER":101.2977,"MEAN_ANOMALY":258.8131,"EPHEMERIS_TYPE":0,"CLASSIFICATION_TYPE":"U","NORAD_CAT_ID":45786,"ELEMENT_SET_NO":999,"REV_AT_EPOCH":31683,"BSTAR":0.0004075,"MEAN_MOTION_DOT":0.00011742,"MEAN_MOTION_DDOT":0},{"OBJECT_NAME":"TEVEL2-5","OBJECT_ID":"2025-052E","EPOCH":"2026-03-09T23:11:54.246048","MEAN_MOTION":15.30817434,"ECCENTRICITY":0.00047002,"INCLINATION":97.4013,"RA_OF_ASC_NODE":325.3677,"ARG_OF_PERICENTER":95.3936,"MEAN_ANOMALY":264.7842,"EPHEMERIS_TYPE":0,"CLASSIFICATION_TYPE":"U","NORAD_CAT_ID":63214,"ELEMENT_SET_NO":999,"REV_AT_EPOCH":5491,"BSTAR":0.00071764727,"MEAN_MOTION_DOT":0.00021339,"MEAN_MOTION_DDOT":0}]
